*******************************************************************************
Ephemeris / WWW_USER Mon Mar 24 07:44:35 2025 Pasadena, USA      / Horizons    
*******************************************************************************
Target body name: (2018 TC)                       {source: JPL#10}
Center body name: Earth (399)                     {source: DE441}
Center-site name: Mauna Kea
*******************************************************************************
Start time      : A.D. 2018-Nov-21 03:51:00.0000 UT      
Stop  time      : A.D. 2018-Nov-21 16:24:00.0000 UT      
Step-size       : 1 minutes
*******************************************************************************
Target pole/equ : undefined
Target radii    : undefined                                                    
Center geodetic : 204.5278, 19.8260847, 4.21024   {E-lon(deg),Lat(deg),Alt(km)}
Center cylindric: 204.5278, 6006.35451, 2151.0229 {E-lon(deg),Dxy(km),Dz(km)}
Center pole/equ : ITRF93                          {East-longitude positive}
Center radii    : 6378.137, 6378.137, 6356.752 km {Equator_a, b, pole_c}       
Target primary  : Sun
Vis. interferer : MOON (R_eq= 1737.400) km        {source: DE441}
Rel. light bend : Sun                             {source: DE441}
Rel. lght bnd GM: 1.3271E+11 km^3/s^2                                          
Small-body perts: Yes                             {source: SB441-N16}
Atmos refraction: NO (AIRLESS)
RA format       : HMS
Time format     : CAL 
Calendar mode   : Mixed Julian/Gregorian
RTS-only print  : NO       
EOP file        : eop.250321.p250617                                           
EOP coverage    : DATA-BASED 1962-JAN-20 TO 2025-MAR-21. PREDICTS-> 2025-JUN-16
Units conversion: 1 au= 149597870.700 km, c= 299792.458 km/s, 1 day= 86400.0 s 
Table cut-offs 1: Elevation (-90.0deg=NO ),Airmass (>38.000=NO), Daylight (YES)
Table cut-offs 2: Solar elongation (  0.0,180.0=NO ),Local Hour Angle( 0.0=NO )
Table cut-offs 3: RA/DEC angular rate (     0.0=NO )                           
*******************************************************************************
Initial IAU76/J2000 heliocentric ecliptic osculating elements (au, days, deg.):
  EPOCH=  2458399.5 ! 2018-Oct-08.00 (TDB)         Residual RMS= .20211        
   EC= .2253304451868516   QR= .9525668516843322   TP= 2458354.2554697809      
   OM= 188.9146441926015   W=  135.2493409557404   IN= 3.631837316097226       
  Equivalent ICRF heliocentric cartesian coordinates (au, au/d):
   X= 9.874490534016482E-01  Y= 2.414303737329446E-01  Z= 9.746991415829437E-02
  VX=-1.955204385424240E-03 VY= 1.722364762632024E-02 VZ= 6.197883797821973E-03
Asteroid physical parameters (km, seconds, rotational period in hours):        
   GM= n.a.                RAD= n.a.               ROTPER= n.a.                
   H= 26.6                 G= .150                 B-V= n.a.                   
                           ALBEDO= n.a.            STYP= n.a.                  
*******************************************************************************
 Date__(UT)__HR:MN     R.A._________(ICRF)_________DEC
******************************************************
$$SOE
 2018-Nov-21 03:51 Cm  02 22 53.072129 -01 46 36.95601
 2018-Nov-21 03:52 Cm  02 22 53.082526 -01 46 36.49866
 2018-Nov-21 03:53 Cm  02 22 53.092874 -01 46 36.04130
 2018-Nov-21 03:54 Cm  02 22 53.103172 -01 46 35.58392
 2018-Nov-21 03:55 Cm  02 22 53.113422 -01 46 35.12653
 2018-Nov-21 03:56 Cm  02 22 53.123622 -01 46 34.66913
 2018-Nov-21 03:57 Cm  02 22 53.133774 -01 46 34.21172
 2018-Nov-21 03:58 Cm  02 22 53.143876 -01 46 33.75430
 2018-Nov-21 03:59 Cm  02 22 53.153931 -01 46 33.29686
 2018-Nov-21 04:00 Cm  02 22 53.163936 -01 46 32.83941
 2018-Nov-21 04:01 Cm  02 22 53.173893 -01 46 32.38195
 2018-Nov-21 04:02 Cm  02 22 53.183801 -01 46 31.92448
 2018-Nov-21 04:03 Cm  02 22 53.193661 -01 46 31.46699
 2018-Nov-21 04:04 Cm  02 22 53.203472 -01 46 31.00949
 2018-Nov-21 04:05 Nm  02 22 53.213235 -01 46 30.55198
 2018-Nov-21 04:06 Nm  02 22 53.222950 -01 46 30.09446
 2018-Nov-21 04:07 Nm  02 22 53.232617 -01 46 29.63692
 2018-Nov-21 04:08 Nm  02 22 53.242236 -01 46 29.17937
 2018-Nov-21 04:09 Nm  02 22 53.251807 -01 46 28.72181
 2018-Nov-21 04:10 Nm  02 22 53.261330 -01 46 28.26423
 2018-Nov-21 04:11 Nm  02 22 53.270805 -01 46 27.80664
 2018-Nov-21 04:12 Nm  02 22 53.280232 -01 46 27.34904
 2018-Nov-21 04:13 Nm  02 22 53.289612 -01 46 26.89142
 2018-Nov-21 04:14 Nm  02 22 53.298945 -01 46 26.43380
 2018-Nov-21 04:15 Nm  02 22 53.308230 -01 46 25.97615
 2018-Nov-21 04:16 Nm  02 22 53.317467 -01 46 25.51849
 2018-Nov-21 04:17 Nm  02 22 53.326657 -01 46 25.06082
 2018-Nov-21 04:18 Nm  02 22 53.335800 -01 46 24.60314
 2018-Nov-21 04:19 Nm  02 22 53.344896 -01 46 24.14544
 2018-Nov-21 04:20 Nm  02 22 53.353945 -01 46 23.68772
 2018-Nov-21 04:21 Nm  02 22 53.362948 -01 46 23.23000
 2018-Nov-21 04:22 Nm  02 22 53.371903 -01 46 22.77226
 2018-Nov-21 04:23 Nm  02 22 53.380812 -01 46 22.31450
 2018-Nov-21 04:24 Nm  02 22 53.389674 -01 46 21.85673
 2018-Nov-21 04:25 Nm  02 22 53.398489 -01 46 21.39894
 2018-Nov-21 04:26 Nm  02 22 53.407258 -01 46 20.94114
 2018-Nov-21 04:27 Nm  02 22 53.415981 -01 46 20.48333
 2018-Nov-21 04:28 Nm  02 22 53.424658 -01 46 20.02550
 2018-Nov-21 04:29 Nm  02 22 53.433288 -01 46 19.56765
 2018-Nov-21 04:30 Nm  02 22 53.441873 -01 46 19.10979
 2018-Nov-21 04:31 Nm  02 22 53.450411 -01 46 18.65192
 2018-Nov-21 04:32 Am  02 22 53.458904 -01 46 18.19403
 2018-Nov-21 04:33 Am  02 22 53.467351 -01 46 17.73612
 2018-Nov-21 04:34 Am  02 22 53.475752 -01 46 17.27820
 2018-Nov-21 04:35 Am  02 22 53.484108 -01 46 16.82027
 2018-Nov-21 04:36 Am  02 22 53.492419 -01 46 16.36231
 2018-Nov-21 04:37 Am  02 22 53.500684 -01 46 15.90435
 2018-Nov-21 04:38 Am  02 22 53.508904 -01 46 15.44636
 2018-Nov-21 04:39 Am  02 22 53.517080 -01 46 14.98836
 2018-Nov-21 04:40 Am  02 22 53.525210 -01 46 14.53035
 2018-Nov-21 04:41 Am  02 22 53.533295 -01 46 14.07232
 2018-Nov-21 04:42 Am  02 22 53.541336 -01 46 13.61427
 2018-Nov-21 04:43 Am  02 22 53.549332 -01 46 13.15621
 2018-Nov-21 04:44 Am  02 22 53.557283 -01 46 12.69813
 2018-Nov-21 04:45 Am  02 22 53.565191 -01 46 12.24003
 2018-Nov-21 04:46 Am  02 22 53.573054 -01 46 11.78192
 2018-Nov-21 04:47 Am  02 22 53.580872 -01 46 11.32379
 2018-Nov-21 04:48 Am  02 22 53.588647 -01 46 10.86565
 2018-Nov-21 04:49 Am  02 22 53.596378 -01 46 10.40748
 2018-Nov-21 04:50 Am  02 22 53.604065 -01 46 09.94930
 2018-Nov-21 04:51 Am  02 22 53.611709 -01 46 09.49111
 2018-Nov-21 04:52 Am  02 22 53.619308 -01 46 09.03290
 2018-Nov-21 04:53 Am  02 22 53.626865 -01 46 08.57467
 2018-Nov-21 04:54 Am  02 22 53.634378 -01 46 08.11642
 2018-Nov-21 04:55 Am  02 22 53.641848 -01 46 07.65816
 2018-Nov-21 04:56 Am  02 22 53.649275 -01 46 07.19987
 2018-Nov-21 04:57 Am  02 22 53.656659 -01 46 06.74158
 2018-Nov-21 04:58 Am  02 22 53.664000 -01 46 06.28326
 2018-Nov-21 04:59  m  02 22 53.671299 -01 46 05.82493
 2018-Nov-21 05:00  m  02 22 53.678555 -01 46 05.36657
 2018-Nov-21 05:01  m  02 22 53.685768 -01 46 04.90820
 2018-Nov-21 05:02  m  02 22 53.692940 -01 46 04.44982
 2018-Nov-21 05:03  m  02 22 53.700069 -01 46 03.99141
 2018-Nov-21 05:04  m  02 22 53.707156 -01 46 03.53299
 2018-Nov-21 05:05  m  02 22 53.714201 -01 46 03.07455
 2018-Nov-21 05:06  m  02 22 53.721205 -01 46 02.61609
 2018-Nov-21 05:07  m  02 22 53.728167 -01 46 02.15761
 2018-Nov-21 05:08  m  02 22 53.735087 -01 46 01.69912
 2018-Nov-21 05:09  m  02 22 53.741966 -01 46 01.24061
 2018-Nov-21 05:10  m  02 22 53.748804 -01 46 00.78207
 2018-Nov-21 05:11  m  02 22 53.755601 -01 46 00.32352
 2018-Nov-21 05:12  m  02 22 53.762356 -01 45 59.86495
 2018-Nov-21 05:13  m  02 22 53.769071 -01 45 59.40637
 2018-Nov-21 05:14  m  02 22 53.775746 -01 45 58.94776
 2018-Nov-21 05:15  m  02 22 53.782379 -01 45 58.48913
 2018-Nov-21 05:16  m  02 22 53.788973 -01 45 58.03049
 2018-Nov-21 05:17  m  02 22 53.795526 -01 45 57.57183
 2018-Nov-21 05:18  m  02 22 53.802039 -01 45 57.11314
 2018-Nov-21 05:19  m  02 22 53.808512 -01 45 56.65444
 2018-Nov-21 05:20  m  02 22 53.814945 -01 45 56.19572
 2018-Nov-21 05:21  m  02 22 53.821339 -01 45 55.73698
 2018-Nov-21 05:22  m  02 22 53.827693 -01 45 55.27822
 2018-Nov-21 05:23  m  02 22 53.834008 -01 45 54.81944
 2018-Nov-21 05:24  m  02 22 53.840283 -01 45 54.36065
 2018-Nov-21 05:25  m  02 22 53.846520 -01 45 53.90183
 2018-Nov-21 05:26  m  02 22 53.852717 -01 45 53.44299
 2018-Nov-21 05:27  m  02 22 53.858876 -01 45 52.98413
 2018-Nov-21 05:28  m  02 22 53.864996 -01 45 52.52526
 2018-Nov-21 05:29  m  02 22 53.871077 -01 45 52.06636
 2018-Nov-21 05:30  m  02 22 53.877121 -01 45 51.60744
 2018-Nov-21 05:31  m  02 22 53.883126 -01 45 51.14851
 2018-Nov-21 05:32  m  02 22 53.889093 -01 45 50.68955
 2018-Nov-21 05:33  m  02 22 53.895022 -01 45 50.23057
 2018-Nov-21 05:34  m  02 22 53.900913 -01 45 49.77157
 2018-Nov-21 05:35  m  02 22 53.906767 -01 45 49.31256
 2018-Nov-21 05:36  m  02 22 53.912583 -01 45 48.85352
 2018-Nov-21 05:37  m  02 22 53.918363 -01 45 48.39446
 2018-Nov-21 05:38  m  02 22 53.924105 -01 45 47.93538
 2018-Nov-21 05:39  m  02 22 53.929810 -01 45 47.47628
 2018-Nov-21 05:40  m  02 22 53.935478 -01 45 47.01716
 2018-Nov-21 05:41  m  02 22 53.941110 -01 45 46.55802
 2018-Nov-21 05:42  m  02 22 53.946705 -01 45 46.09886
 2018-Nov-21 05:43  m  02 22 53.952264 -01 45 45.63967
 2018-Nov-21 05:44  m  02 22 53.957787 -01 45 45.18047
 2018-Nov-21 05:45  m  02 22 53.963274 -01 45 44.72124
 2018-Nov-21 05:46  m  02 22 53.968725 -01 45 44.26200
 2018-Nov-21 05:47  m  02 22 53.974140 -01 45 43.80273
 2018-Nov-21 05:48  m  02 22 53.979520 -01 45 43.34344
 2018-Nov-21 05:49  m  02 22 53.984865 -01 45 42.88413
 2018-Nov-21 05:50  m  02 22 53.990174 -01 45 42.42480
 2018-Nov-21 05:51  m  02 22 53.995449 -01 45 41.96545
 2018-Nov-21 05:52  m  02 22 54.000689 -01 45 41.50608
 2018-Nov-21 05:53  m  02 22 54.005894 -01 45 41.04668
